TRITON-1                
1 39427U 13066M   26192.94402216  .00001014  00000+0  12645-3 0  9995
2 39427  97.8227 102.1859 0090302 152.6110 207.9907 14.81788665677758
GOMX-1                  
1 39430U 13066Q   26192.97104899  .00000942  00000+0  14759-3 0  9995
2 39430  97.6478  31.8700 0128580 358.5835   1.4990 14.69538262673557
CUBEBUG-2 (LO-74)       
1 39440U 13066AA  26192.84632709  .00001819  00000+0  17145-3 0  9994
2 39440  97.8908 141.9334 0056004 306.7356  52.8728 14.93953448680672
NEE-02 KRYSAOR          
1 39441U 13066AB  26192.77553344  .00001515  00000+0  17018-3 0  9996
2 39441  97.8892 131.8170 0065707 350.5702   9.4275 14.86730516679857
FUNCUBE-1 (AO-73)       
1 39444U 13066AE  26192.91261323  .00003917  00000+0  24262-3 0  9995
2 39444  97.8287 164.8814 0037971 118.2418 242.2652 15.09793381683399
UWE-3                   
1 39446U 13066AG  26192.81148793  .00001794  00000+0  15713-3 0  9993
2 39446  97.8698 149.0559 0047517 236.3304 123.3381 14.97185641681263
SMDC ONE 2.4            
1 39469U 13072H   26192.76180248  .00008388  00000+0  31499-3 0  9995
2 39469 120.4916  87.0012 0147769  44.9161 316.3763 15.18745021121561
COSMOS 2488 (RODNIK-S 7)
1 39483U 13076A   26192.91101620  .00000086  00000+0  54944-3 0  9996
2 39483  82.4844 153.2919 0020682  44.3263 315.9469 12.42906581568968
COSMOS 2489 (RODNIK-S 8)
1 39484U 13076B   26192.88673855  .00000128  00000+0  85268-3 0  9997
2 39484  82.4880 154.6938 0022508  44.1192 316.1679 12.42880534569015
COSMOS 2490 (RODNIK-S 9)
1 39485U 13076C   26192.93915870  .00000188  00000+0  12819-2 0  9997
2 39485  82.4827 152.7178 0022866  58.8079 301.5238 12.42879785568952
KAZEOSAT 1              
1 39731U 14024A   26192.93098404 -.00000082  00000+0 -12045-4 0  9998
2 39731  98.3201 264.7614 0001257  81.6148 278.5184 14.42035929642120
COSMOS 2496 (RODNIK-S *)
1 39761U 14028A   26192.89664334 -.00000104  00000+0 -82196-3 0  9999
2 39761  82.4454  93.2557 0021010  27.8085 332.4114 12.42878817550589
COSMOS 2497 (RODNIK-S *)
1 39762U 14028B   26192.95210566 -.00000096  00000+0 -76073-3 0  9998
2 39762  82.4502  94.9202 0021468  22.8090 337.3939 12.42894636550594
COSMOS 2498 (RODNIK-S *)
1 39763U 14028C   26192.92799597 -.00000045  00000+0 -39720-3 0  9994
2 39763  82.4463  93.4116 0022188  22.3754 337.8289 12.42980558550627
HODOYOSHI-4             
1 40011U 14033B   26192.97970486  .00000632  00000+0  73996-4 0  9995
2 40011  97.5459  16.6074 0022443 220.8916 139.0618 14.88183026652499
UNISAT-6                
1 40012U 14033C   26192.87453483  .00001244  00000+0  13805-3 0  9990
2 40012  97.7904 345.1570 0044447 348.8608  11.1621 14.88358321649835
DEIMOS-2                
1 40013U 14033D   26192.90129124  .00000093  00000+0  13916-4 0  9992
2 40013  97.5807  66.5191 0000926  86.0615 274.0712 14.93789314641415
BUGSAT-1 (TITA)         
1 40014U 14033E   26192.92448928  .00003093  00000+0  16401-3 0  9995
2 40014  98.0434 286.9243 0029124  96.5819 263.8729 15.15859419659587
SAUDISAT 4              
1 40016U 14033G   26192.87096491  .00000274  00000+0  42891-4 0  9996
2 40016  97.7612 338.1563 0044532 354.9490   5.1267 14.79573545649725
APRIZESAT 9             
1 40018U 14033J   26192.84568323  .00000378  00000+0  62796-4 0  9994
2 40018  97.9089 325.4456 0067338 120.4864 240.3018 14.74249965647194
BRITE-CA1 (TORONTO)     
1 40020U 14033L   26192.83734130  .00000569  00000+0  93137-4 0  9992
2 40020  97.9767 321.3152 0078193 197.0405 162.8175 14.72718584645848
