OBJECT_NAME,OBJECT_ID,EPOCH,MEAN_MOTION,ECCENTRICITY,INCLINATION,RA_OF_ASC_NODE,ARG_OF_PERICENTER,MEAN_ANOMALY,EPHEMERIS_TYPE,CLASSIFICATION_TYPE,NORAD_CAT_ID,ELEMENT_SET_NO,REV_AT_EPOCH,BSTAR,MEAN_MOTION_DOT,MEAN_MOTION_DDOT
TRITON-1,2013-066M,2026-07-11T22:39:23.514624,14.81788665,.00903021,97.8227,102.1859,152.6110,207.9907,0,U,39427,999,67775,.12645363E-3,.1014E-4,0
GOMX-1,2013-066Q,2026-07-11T23:18:18.632736,14.69538262,.01285802,97.6478,31.8700,358.5835,1.4990,0,U,39430,999,67355,.14759452E-3,.942E-5,0
CUBEBUG-2 (LO-74),2013-066AA,2026-07-11T20:18:42.660576,14.93953448,.00560049,97.8908,141.9334,306.7356,52.8728,0,U,39440,999,68067,.17144837E-3,.1819E-4,0
NEE-02 KRYSAOR,2013-066AB,2026-07-11T18:36:46.089216,14.86730516,.0065707,97.8892,131.8170,350.5702,9.4275,0,U,39441,999,67985,.17017859E-3,.1515E-4,0
FUNCUBE-1 (AO-73),2013-066AE,2026-07-11T21:54:09.783072,15.09793381,.00379718,97.8287,164.8814,118.2418,242.2652,0,U,39444,999,68339,.2426226E-3,.3917E-4,0
UWE-3,2013-066AG,2026-07-11T19:28:32.557152,14.97185641,.00475172,97.8698,149.0559,236.3304,123.3381,0,U,39446,999,68126,.15712987E-3,.1794E-4,0
SMDC ONE 2.4,2013-072H,2026-07-11T18:16:59.734272,15.18745021,.01477698,120.4916,87.0012,44.9161,316.3763,0,U,39469,999,12156,.31498875E-3,.8388E-4,0
COSMOS 2488 (RODNIK-S 7),2013-076A,2026-07-11T21:51:51.799680,12.42906581,.00206829,82.4844,153.2919,44.3263,315.9469,0,U,39483,999,56896,.54943693E-3,.86E-6,0
COSMOS 2489 (RODNIK-S 8),2013-076B,2026-07-11T21:16:54.210720,12.42880534,.00225085,82.4880,154.6938,44.1192,316.1679,0,U,39484,999,56901,.8526848E-3,.128E-5,0
COSMOS 2490 (RODNIK-S 9),2013-076C,2026-07-11T22:32:23.311680,12.42879785,.00228661,82.4827,152.7178,58.8079,301.5238,0,U,39485,999,56895,.12818689E-2,.188E-5,0
KAZEOSAT 1,2014-024A,2026-07-11T22:20:37.021056,14.42035929,.00012573,98.3201,264.7614,81.6148,278.5184,0,U,39731,999,64212,-.12045053E-4,-.82E-6,0
COSMOS 2496 (RODNIK-S 10),2014-028A,2026-07-11T21:31:09.984576,12.42878817,.00210103,82.4454,93.2557,27.8085,332.4114,0,U,39761,999,55058,-.82195764E-3,-.104E-5,0
COSMOS 2497 (RODNIK-S 11),2014-028B,2026-07-11T22:51:01.929024,12.42894636,.0021468,82.4502,94.9202,22.8090,337.3939,0,U,39762,999,55059,-.76073249E-3,-.96E-6,0
COSMOS 2498 (RODNIK-S 12),2014-028C,2026-07-11T22:16:18.851808,12.42980558,.00221887,82.4463,93.4116,22.3754,337.8289,0,U,39763,999,55062,-.39720266E-3,-.45E-6,0
HODOYOSHI-4,2014-033B,2026-07-11T23:30:46.499904,14.88183026,.00224437,97.5459,16.6074,220.8916,139.0618,0,U,40011,999,65249,.7399574E-4,.632E-5,0
UNISAT-6,2014-033C,2026-07-11T20:59:19.809312,14.88358321,.00444472,97.7904,345.1570,348.8608,11.1621,0,U,40012,999,64983,.13804987E-3,.1244E-4,0
DEIMOS-2,2014-033D,2026-07-11T21:37:51.563136,14.93789314,.00009264,97.5807,66.5191,86.0615,274.0712,0,U,40013,999,64141,.13915711E-4,.93E-6,0
BUGSAT-1 (TITA),2014-033E,2026-07-11T22:11:15.873792,15.15859419,.00291245,98.0434,286.9243,96.5819,263.8729,0,U,40014,999,65958,.1640086E-3,.3093E-4,0
SAUDISAT 4,2014-033G,2026-07-11T20:54:11.368224,14.79573545,.00445327,97.7612,338.1563,354.9490,5.1267,0,U,40016,999,64972,.42891132E-4,.274E-5,0
APRIZESAT 9,2014-033J,2026-07-11T20:17:47.031072,14.74249965,.00673381,97.9089,325.4456,120.4864,240.3018,0,U,40018,999,64719,.62796476E-4,.378E-5,0
BRITE-CA1 (TORONTO),2014-033L,2026-07-11T20:05:46.288320,14.72718584,.00781937,97.9767,321.3152,197.0405,162.8175,0,U,40020,999,64584,.93137253E-4,.569E-5,0
